IRIDIUM 36              
1 24967U 97056C   24253.17577787  .00001506  00000+0  50176-3 0  9993
2 24967  86.3926 291.0291 0002137  96.7892 263.3548 14.37016187411850
IRIDIUM 39              
1 25042U 97069D   24252.75704275  .00003023  00000+0  80217-3 0  9994
2 25042  86.3955 331.7926 0019007 160.1593 200.0354 14.48303322408213
IRIDIUM 38              
1 25043U 97069E   24252.80866327  .00002116  00000+0  70087-3 0  9994
2 25043  86.4021 351.5338 0000986  33.3406 326.7853 14.37497853405528
IRIDIUM 42              
1 25077U 97077A   24252.82167236  .00001921  00000+0  65777-3 0  9998
2 25077  86.4027 357.3456 0001681  76.4450 283.6934 14.35776568400815
IRIDIUM 44              
1 25078U 97077B   24252.76739838  .00001839  00000+0  58252-3 0  9993
2 25078  86.4009 340.0591 0001370 152.3558 207.7714 14.39622626403201
IRIDIUM 45              
1 25104U 97082A   24252.86273119  .00035629  00000+0  18242-2 0  9993
2 25104  86.3726 182.8765 0146165 295.1084  63.5045 15.07543573409449
IRIDIUM 24              
1 25105U 97082B   24252.89072814  .00002352  00000+0  71956-3 0  9995
2 25105  86.3963 199.4479 0009212 292.7072  67.3154 14.41431003402683
IRIDIUM 51              
1 25262U 98018A   24252.88227144  .00036091  00000+0  14925-2 0  9995
2 25262  86.3990 192.4050 0130026 232.0115 126.9327 15.16314045404076
